[{"OBJECT_NAME":"DLR-TUBSAT","OBJECT_ID":"1999-029B","EPOCH":"2026-03-09T22:51:45.976608","MEAN_MOTION":14.52397784,"ECCENTRICITY":0.00131628,"INCLINATION":98.6666,"RA_OF_ASC_NODE":61.2109,"ARG_OF_PERICENTER":293.9796,"MEAN_ANOMALY":66.002,"EPHEMERIS_TYPE":0,"CLASSIFICATION_TYPE":"U","NORAD_CAT_ID":25757,"ELEMENT_SET_NO":999,"REV_AT_EPOCH":41884,"BSTAR":5.8838282e-5,"MEAN_MOTION_DOT":1.91e-6,"MEAN_MOTION_DDOT":0},{"OBJECT_NAME":"FENGYUN 1C DEB","OBJECT_ID":"1999-025CNR","EPOCH":"2026-02-24T19:18:48.276288","MEAN_MOTION":14.60616141,"ECCENTRICITY":0.00309264,"INCLINATION":98.6992,"RA_OF_ASC_NODE":188.0125,"ARG_OF_PERICENTER":165.1521,"MEAN_ANOMALY":195.0593,"EPHEMERIS_TYPE":0,"CLASSIFICATION_TYPE":"U","NORAD_CAT_ID":31964,"ELEMENT_SET_NO":999,"REV_AT_EPOCH":68590,"BSTAR":0.002206143,"MEAN_MOTION_DOT":0.00010765,"MEAN_MOTION_DDOT":0}]
